{
  "type": "FeatureCollection",
  "features": [
    {
      "type": "Feature",
      "properties": {
        "norad_id": 39227,
        "name": "ARIRANG-5 (KOMPSAT-5)",
        "group": "resource",
        "lat": 74.68092677388802,
        "lon": 33.74886262581532,
        "alt_km": 545.2905019294931,
        "timestamp": "2025-12-26T09:30:53.284862+00:00",
        "meta_object_name": "ARIRANG-5 (KOMPSAT-5)",
        "meta_object_id": "2013-042A",
        "meta_epoch": "2025-12-26T04:16:07.834944",
        "meta_mean_motion": 15.04486659,
        "meta_eccentricity": 0.0002969,
        "meta_inclination": 97.6166,
        "meta_ra_of_asc_node": 184.2909,
        "meta_arg_of_pericenter": 33.4961,
        "meta_mean_anomaly": 326.6453,
        "meta_ephemeris_type": 0,
        "meta_classification_type": "U",
        "meta_norad_cat_id": 39227,
        "meta_element_set_no": 999,
        "meta_rev_at_epoch": 67784,
        "meta_bstar": 0.00011036,
        "meta_mean_motion_dot": 1.484e-05,
        "meta_mean_motion_ddot": 0,
        "tle_line1": "1 39227U 13042A   25360.17786846  .00001484  00000+0  11036-3 0  9996",
        "tle_line2": "2 39227  97.6166 184.2909 0002969  33.4961 326.6453 15.04486659677844"
      },
      "geometry": {
        "type": "Point",
        "coordinates": [
          33.74886262581532,
          74.68092677388802
        ]
      }
    },
    {
      "type": "Feature",
      "properties": {
        "norad_id": 39418,
        "name": "SKYSAT-A",
        "group": "resource",
        "lat": 72.22289695965611,
        "lon": -105.8674779410024,
        "alt_km": 521.8541308451722,
        "timestamp": "2025-12-26T09:30:53.284873+00:00",
        "meta_object_name": "SKYSAT-A",
        "meta_object_id": "2013-066C",
        "meta_epoch": "2025-12-26T02:41:27.845376",
        "meta_mean_motion": 15.11697781,
        "meta_eccentricity": 0.0021739,
        "meta_inclination": 97.4086,
        "meta_ra_of_asc_node": 49.9135,
        "meta_arg_of_pericenter": 188.7352,
        "meta_mean_anomaly": 171.3503,
        "meta_ephemeris_type": 0,
        "meta_classification_type": "U",
        "meta_norad_cat_id": 39418,
        "meta_element_set_no": 999,
        "meta_rev_at_epoch": 66232,
        "meta_bstar": 0.00020438,
        "meta_mean_motion_dot": 3.435e-05,
        "meta_mean_motion_ddot": 0,
        "tle_line1": "1 39418U 13066C   25360.11212784  .00003435  00000+0  20438-3 0  9997",
        "tle_line2": "2 39418  97.4086  49.9135 0021739 188.7352 171.3503 15.11697781662323"
      },
      "geometry": {
        "type": "Point",
        "coordinates": [
          -105.8674779410024,
          72.22289695965611
        ]
      }
    },
    {
      "type": "Feature",
      "properties": {
        "norad_id": 39419,
        "name": "DUBAISAT-2",
        "group": "resource",
        "lat": 82.54762442000963,
        "lon": -99.02590271186521,
        "alt_km": 540.0991247650581,
        "timestamp": "2025-12-26T09:30:53.284883+00:00",
        "meta_object_name": "DUBAISAT-2",
        "meta_object_id": "2013-066D",
        "meta_epoch": "2025-12-26T05:55:59.408832",
        "meta_mean_motion": 15.08489138,
        "meta_eccentricity": 0.0009772,
        "meta_inclination": 97.4469,
        "meta_ra_of_asc_node": 350.2395,
        "meta_arg_of_pericenter": 268.4952,
        "meta_mean_anomaly": 91.5157,
        "meta_ephemeris_type": 0,
        "meta_classification_type": "U",
        "meta_norad_cat_id": 39419,
        "meta_element_set_no": 999,
        "meta_rev_at_epoch": 66030,
        "meta_bstar": 0.00047897,
        "meta_mean_motion_dot": 7.416e-05,
        "meta_mean_motion_ddot": 0,
        "tle_line1": "1 39419U 13066D   25360.24721538  .00007416  00000+0  47897-3 0  9995",
        "tle_line2": "2 39419  97.4469 350.2395 0009772 268.4952  91.5157 15.08489138660305"
      },
      "geometry": {
        "type": "Point",
        "coordinates": [
          -99.02590271186521,
          82.54762442000963
        ]
      }
    },
    {
      "type": "Feature",
      "properties": {
        "norad_id": 39574,
        "name": "GPM-CORE",
        "group": "resource",
        "lat": -54.47369996918294,
        "lon": 27.81970140703421,
        "alt_km": 432.22826175352293,
        "timestamp": "2025-12-26T09:30:53.284893+00:00",
        "meta_object_name": "GPM-CORE",
        "meta_object_id": "2014-009C",
        "meta_epoch": "2025-12-26T00:41:34.647072",
        "meta_mean_motion": 15.44672423,
        "meta_eccentricity": 0.0009052,
        "meta_inclination": 64.9728,
        "meta_ra_of_asc_node": 168.1776,
        "meta_arg_of_pericenter": 251.2366,
        "meta_mean_anomaly": 108.7793,
        "meta_ephemeris_type": 0,
        "meta_classification_type": "U",
        "meta_norad_cat_id": 39574,
        "meta_element_set_no": 999,
        "meta_rev_at_epoch": 67106,
        "meta_bstar": 0.00019234,
        "meta_mean_motion_dot": 8.785e-05,
        "meta_mean_motion_ddot": 0,
        "tle_line1": "1 39574U 14009C   25360.02887323  .00008785  00000+0  19234-3 0  9990",
        "tle_line2": "2 39574  64.9728 168.1776 0009052 251.2366 108.7793 15.44672423671066"
      },
      "geometry": {
        "type": "Point",
        "coordinates": [
          27.81970140703421,
          -54.47369996918294
        ]
      }
    },
    {
      "type": "Feature",
      "properties": {
        "norad_id": 39634,
        "name": "SENTINEL-1A",
        "group": "resource",
        "lat": -1.8997330116451665,
        "lon": -174.83750569526137,
        "alt_km": 699.1005443804897,
        "timestamp": "2025-12-26T09:30:53.284904+00:00",
        "meta_object_name": "SENTINEL-1A",
        "meta_object_id": "2014-016A",
        "meta_epoch": "2025-12-26T03:44:50.140896",
        "meta_mean_motion": 14.59199806,
        "meta_eccentricity": 0.0001261,
        "meta_inclination": 98.1803,
        "meta_ra_of_asc_node": 5.1991,
        "meta_arg_of_pericenter": 85.293,
        "meta_mean_anomaly": 274.8414,
        "meta_ephemeris_type": 0,
        "meta_classification_type": "U",
        "meta_norad_cat_id": 39634,
        "meta_element_set_no": 999,
        "meta_rev_at_epoch": 62478,
        "meta_bstar": 2.3206e-05,
        "meta_mean_motion_dot": 6.4e-07,
        "meta_mean_motion_ddot": 0,
        "tle_line1": "1 39634U 14016A   25360.15613589  .00000064  00000+0  23206-4 0  9997",
        "tle_line2": "2 39634  98.1803   5.1991 0001261  85.2930 274.8414 14.59199806624787"
      },
      "geometry": {
        "type": "Point",
        "coordinates": [
          -174.83750569526137,
          -1.8997330116451665
        ]
      }
    },
    {
      "type": "Feature",
      "properties": {
        "norad_id": 39731,
        "name": "KAZEOSAT 1",
        "group": "resource",
        "lat": 34.723273827595584,
        "lon": 66.16039402148165,
        "alt_km": 748.951305431463,
        "timestamp": "2025-12-26T09:30:53.284915+00:00",
        "meta_object_name": "KAZEOSAT 1",
        "meta_object_id": "2014-024A",
        "meta_epoch": "2025-12-26T04:21:23.823936",
        "meta_mean_motion": 14.42069723,
        "meta_eccentricity": 0.000122,
        "meta_inclination": 98.3414,
        "meta_ra_of_asc_node": 71.7863,
        "meta_arg_of_pericenter": 97.6795,
        "meta_mean_anomaly": 262.4533,
        "meta_ephemeris_type": 0,
        "meta_classification_type": "U",
        "meta_norad_cat_id": 39731,
        "meta_element_set_no": 999,
        "meta_rev_at_epoch": 61362,
        "meta_bstar": 5.0425e-05,
        "meta_mean_motion_dot": 1.23e-06,
        "meta_mean_motion_ddot": 0,
        "tle_line1": "1 39731U 14024A   25360.18152574  .00000123  00000+0  50425-4 0  9998",
        "tle_line2": "2 39731  98.3414  71.7863 0001220  97.6795 262.4533 14.42069723613625"
      },
      "geometry": {
        "type": "Point",
        "coordinates": [
          66.16039402148165,
          34.723273827595584
        ]
      }
    },
    {
      "type": "Feature",
      "properties": {
        "norad_id": 39766,
        "name": "ALOS-2",
        "group": "resource",
        "lat": -44.33576303175172,
        "lon": 102.86736009891023,
        "alt_km": 638.4727297011214,
        "timestamp": "2025-12-26T09:30:53.284924+00:00",
        "meta_object_name": "ALOS-2",
        "meta_object_id": "2014-029A",
        "meta_epoch": "2025-12-26T04:50:51.877248",
        "meta_mean_motion": 14.79471307,
        "meta_eccentricity": 0.0001415,
        "meta_inclination": 97.9221,
        "meta_ra_of_asc_node": 94.856,
        "meta_arg_of_pericenter": 96.0944,
        "meta_mean_anomaly": 264.0429,
        "meta_ephemeris_type": 0,
        "meta_classification_type": "U",
        "meta_norad_cat_id": 39766,
        "meta_element_set_no": 999,
        "meta_rev_at_epoch": 62600,
        "meta_bstar": 0.00020332,
        "meta_mean_motion_dot": 1.467e-05,
        "meta_mean_motion_ddot": 0,
        "tle_line1": "1 39766U 14029A   25360.20198932  .00001467  00000+0  20332-3 0  9997",
        "tle_line2": "2 39766  97.9221  94.8560 0001415  96.0944 264.0429 14.79471307626002"
      },
      "geometry": {
        "type": "Point",
        "coordinates": [
          102.86736009891023,
          -44.33576303175172
        ]
      }
    }
  ]
}